OBJECT_NAME,OBJECT_ID,EPOCH,MEAN_MOTION,ECCENTRICITY,INCLINATION,RA_OF_ASC_NODE,ARG_OF_PERICENTER,MEAN_ANOMALY,EPHEMERIS_TYPE,CLASSIFICATION_TYPE,NORAD_CAT_ID,ELEMENT_SET_NO,REV_AT_EPOCH,BSTAR,MEAN_MOTION_DOT,MEAN_MOTION_DDOT
STARLINK-30852,2023-177Y,2024-12-04T08:08:14.433216,15.02539768,.000113,43.0007,333.2679,262.2235,97.8479,0,U,58373,999,5896,.11776E-3,.1388E-4,0
STARLINK-30911,2023-178A,2024-12-04T07:27:16.964064,15.34211177,.0001073,53.1606,339.6040,91.6618,268.4507,0,U,58374,999,5939,-.71151E-5,-.614E-5,0
STARLINK-30894,2023-178B,2024-12-04T07:13:52.153248,15.34216519,.000312,53.1615,339.5536,79.7713,280.3642,0,U,58375,999,5933,.16331E-4,.172E-5,0
STARLINK-30910,2023-178C,2024-12-04T07:13:22.785888,15.34219052,.0001142,53.1602,339.5493,83.9942,276.1190,0,U,58376,999,5940,.14003E-4,.95E-6,0
STARLINK-30914,2023-178D,2024-12-04T07:26:48.116832,15.34219263,.0001353,53.1604,339.5923,109.3267,250.7882,0,U,58377,999,5940,.72739E-6,-.351E-5,0
STARLINK-30920,2023-178E,2024-12-04T11:28:34.402080,15.34227021,.0001424,53.1599,339.2484,87.3811,272.7355,0,U,58378,999,5942,.2187E-3,.698E-4,0
STARLINK-30882,2023-178F,2024-12-04T14:00:01.000224,15.30080180,.0001818,53.1572,338.2468,83.4220,28.2651,0,U,58379,999,578,.68822E-3,.20004E-3,0
STARLINK-30915,2023-178G,2024-12-04T01:33:22.519008,15.39612320,.0000966,53.1591,255.0844,16.5336,343.5700,0,U,58380,999,6053,-.34428E-4,-.1775E-4,0
STARLINK-30923,2023-178H,2024-12-04T07:28:32.805120,15.30177928,.0001161,53.1602,339.5687,94.4269,265.6864,0,U,58381,999,5933,-.326E-4,-.1324E-4,0
STARLINK-30927,2023-178J,2024-12-04T07:48:17.916768,15.30187100,.0001589,53.1611,339.6954,122.9939,237.1214,0,U,58382,999,5938,.16569E-4,.131E-5,0
STARLINK-30921,2023-178K,2024-12-04T07:23:59.582400,15.30190356,.000163,53.1614,339.5959,110.4312,249.6864,0,U,58383,999,5938,.13945E-4,.54E-6,0
STARLINK-30825,2023-178L,2024-12-04T07:20:34.239840,15.34211515,.0001057,53.1606,339.5492,77.0916,283.0205,0,U,58384,999,5940,-.24173E-4,-.1187E-4,0
STARLINK-30930,2023-178M,2024-12-04T09:07:19.676640,15.34207336,.0001097,53.1605,339.3229,87.0323,273.0805,0,U,58385,999,5928,-.12463E-4,-.794E-5,0
STARLINK-30929,2023-178N,2024-12-04T08:15:36.732960,15.30189330,.0001292,53.1614,339.6101,90.2358,269.8791,0,U,58386,999,5938,.25176E-4,.386E-5,0
STARLINK-30898,2023-178P,2024-12-04T08:01:57.247968,15.30187454,.0001351,53.1613,339.6303,99.5651,260.5503,0,U,58387,999,5940,.14498E-4,.7E-6,0
STARLINK-30913,2023-178Q,2024-12-04T07:42:13.351104,15.30192372,.000156,53.1610,339.6733,102.1814,257.9362,0,U,58388,999,5940,.38604E-4,.784E-5,0
STARLINK-30938,2023-178R,2024-12-04T14:02:54.371328,15.33622266,.0001863,53.1618,338.4724,43.7114,316.4035,0,U,58389,999,5944,-.23516E-2,-.77106E-3,0
STARLINK-30868,2023-178S,2024-12-04T05:59:02.972544,15.30194084,.0000848,53.1629,339.9368,106.4314,253.6780,0,U,58390,999,5939,-.11701E-4,-.705E-5,0
STARLINK-30916,2023-178T,2024-12-04T07:52:50.467296,15.30187625,.0001341,53.1614,339.6156,101.7577,258.3575,0,U,58391,999,5940,.88306E-5,-.98E-6,0
STARLINK-30937,2023-178U,2024-12-04T09:31:26.554368,15.30198284,.0001008,53.1637,339.3386,93.2323,266.8793,0,U,58392,999,5941,-.87227E-5,-.617E-5,0
STARLINK-30939,2023-178V,2024-12-04T07:19:25.925088,15.30187791,.0001112,53.1599,339.5708,75.9954,284.1171,0,U,58393,999,5927,-.16953E-4,-.861E-5,0
STARLINK-30887,2023-178W,2024-12-04T06:37:00.026400,15.30188025,.0001198,53.1635,339.9252,86.6773,273.4364,0,U,58394,999,5937,.53893E-4,.1237E-4,0
STARLINK-30934,2023-178X,2024-12-04T07:37:41.746656,15.30181070,.0001393,53.1605,339.7316,61.8590,298.2552,0,U,58395,999,5933,-.23467E-4,-.1054E-4,0
MALLIGYONG-1,2023-179A,2024-12-04T13:43:15.661056,15.22422295,.0007442,97.3789,223.3715,183.3961,176.7226,0,U,58400,999,5763,.40239E-3,.9243E-4,0
STARLINK-30964,2023-180A,2024-12-04T10:20:11.552928,15.02534851,.0001625,43.0080,36.6481,259.5048,100.5612,0,U,58402,999,5835,.69452E-4,.734E-5,0
STARLINK-30844,2023-180B,2024-12-04T03:43:03.569952,15.02537602,.0001406,43.0034,38.8800,263.2589,96.8093,0,U,58403,999,5819,.13637E-3,.1639E-4,0
STARLINK-30876,2023-180C,2024-12-04T13:12:38.430720,15.02534402,.000153,43.0062,36.6889,265.4649,94.6018,0,U,58404,999,5836,-.82737E-5,-.315E-5,0
STARLINK-30952,2023-180D,2024-12-04T11:32:07.766016,15.02509187,.0001055,43.0048,37.0280,278.2022,81.8700,0,U,58405,999,5824,.90416E-3,.12022E-3,0
STARLINK-30925,2023-180E,2024-12-04T11:27:19.482912,15.02527681,.000044,43.0110,37.0072,239.0694,121.0105,0,U,58406,999,5824,.1902E-3,.2366E-4,0
STARLINK-30954,2023-180F,2024-12-04T10:15:24.031008,15.02527424,.0001362,43.0016,36.6256,270.2155,89.8531,0,U,58407,999,5835,.23668E-3,.2994E-4,0
