STARLINK-30852          
1 58373U 23177Y   24339.33905594  .00001388  00000+0  11776-3 0  9999
2 58373  43.0007 333.2679 0001130 262.2235  97.8479 15.02539768 58960
STARLINK-30911          
1 58374U 23178A   24339.31061301 -.00000614  00000+0 -71151-5 0  9996
2 58374  53.1606 339.6040 0001073  91.6618 268.4507 15.34211177 59397
STARLINK-30894          
1 58375U 23178B   24339.30129807  .00000172  00000+0  16331-4 0  9997
2 58375  53.1615 339.5536 0003120  79.7713 280.3642 15.34216519 59337
STARLINK-30910          
1 58376U 23178C   24339.30095817  .00000095  00000+0  14003-4 0  9999
2 58376  53.1602 339.5493 0001142  83.9942 276.1190 15.34219052 59403
STARLINK-30914          
1 58377U 23178D   24339.31027913 -.00000351  00000+0  72739-6 0  9991
2 58377  53.1604 339.5923 0001353 109.3267 250.7882 15.34219263 59401
STARLINK-30920          
1 58378U 23178E   24339.47817595  .00006980  00000+0  21870-3 0  9992
2 58378  53.1599 339.2484 0001424  87.3811 272.7355 15.34227021 59425
STARLINK-30882          
1 58379U 23178F   24339.58334491  .00020004  00000+0  68822-3 0  9995
2 58379  53.1572 338.2468 0001818  83.4220  28.2651 15.30080180  5788
STARLINK-30915          
1 58380U 23178G   24339.06484397 -.00001775  00000+0 -34428-4 0  9993
2 58380  53.1591 255.0844 0000966  16.5336 343.5700 15.39612320 60531
STARLINK-30923          
1 58381U 23178H   24339.31149080 -.00001324  00000+0 -32600-4 0  9999
2 58381  53.1602 339.5687 0001161  94.4269 265.6864 15.30177928 59338
STARLINK-30927          
1 58382U 23178J   24339.32520737  .00000131  00000+0  16569-4 0  9992
2 58382  53.1611 339.6954 0001589 122.9939 237.1214 15.30187100 59383
STARLINK-30921          
1 58383U 23178K   24339.30832850  .00000054  00000+0  13945-4 0  9992
2 58383  53.1614 339.5959 0001630 110.4312 249.6864 15.30190356 59381
STARLINK-30825          
1 58384U 23178L   24339.30595185 -.00001187  00000+0 -24173-4 0  9995
2 58384  53.1606 339.5492 0001057  77.0916 283.0205 15.34211515 59405
STARLINK-30930          
1 58385U 23178M   24339.38008885 -.00000794  00000+0 -12463-4 0  9992
2 58385  53.1605 339.3229 0001097  87.0323 273.0805 15.34207336 59285
STARLINK-30929          
1 58386U 23178N   24339.34417515  .00000386  00000+0  25176-4 0  9993
2 58386  53.1614 339.6101 0001292  90.2358 269.8791 15.30189330 59386
STARLINK-30898          
1 58387U 23178P   24339.33469037  .00000070  00000+0  14498-4 0  9994
2 58387  53.1613 339.6303 0001351  99.5651 260.5503 15.30187454 59401
STARLINK-30913          
1 58388U 23178Q   24339.32098786  .00000784  00000+0  38604-4 0  9990
2 58388  53.1610 339.6733 0001560 102.1814 257.9362 15.30192372 59408
STARLINK-30938          
1 58389U 23178R   24339.58535152 -.00077106  00000+0 -23516-2 0  9990
2 58389  53.1618 338.4724 0001863  43.7114 316.4035 15.33622266 59448
STARLINK-30868          
1 58390U 23178S   24339.24933996 -.00000705  00000+0 -11701-4 0  9999
2 58390  53.1629 339.9368 0000848 106.4314 253.6780 15.30194084 59395
STARLINK-30916          
1 58391U 23178T   24339.32836189 -.00000098  00000+0  88306-5 0  9995
2 58391  53.1614 339.6156 0001341 101.7577 258.3575 15.30187625 59409
STARLINK-30937          
1 58392U 23178U   24339.39683512 -.00000617  00000+0 -87227-5 0  9992
2 58392  53.1637 339.3386 0001008  93.2323 266.8793 15.30198284 59411
STARLINK-30939          
1 58393U 23178V   24339.30516117 -.00000861  00000+0 -16953-4 0  9998
2 58393  53.1599 339.5708 0001112  75.9954 284.1171 15.30187791 59270
STARLINK-30887          
1 58394U 23178W   24339.27569475  .00001237  00000+0  53893-4 0  9990
2 58394  53.1635 339.9252 0001198  86.6773 273.4364 15.30188025 59379
STARLINK-30934          
1 58395U 23178X   24339.31784429 -.00001054  00000+0 -23467-4 0  9997
2 58395  53.1605 339.7316 0001393  61.8590 298.2552 15.30181070 59338
MALLIGYONG-1            
1 58400U 23179A   24339.57170904  .00009243  00000+0  40239-3 0  9991
2 58400  97.3789 223.3715 0007442 183.3961 176.7226 15.22422295 57639
STARLINK-30964          
1 58402U 23180A   24339.43068927  .00000734  00000+0  69452-4 0  9996
2 58402  43.0080  36.6481 0001625 259.5048 100.5612 15.02534851 58351
STARLINK-30844          
1 58403U 23180B   24339.15490243  .00001639  00000+0  13637-3 0  9994
2 58403  43.0034  38.8800 0001406 263.2589  96.8093 15.02537602 58198
STARLINK-30876          
1 58404U 23180C   24339.55044480 -.00000315  00000+0 -82737-5 0  9998
2 58404  43.0062  36.6889 0001530 265.4649  94.6018 15.02534402 58369
STARLINK-30952          
1 58405U 23180D   24339.48064544  .00012022  00000+0  90416-3 0  9991
2 58405  43.0048  37.0280 0001055 278.2022  81.8700 15.02509187 58248
STARLINK-30925          
1 58406U 23180E   24339.47730883  .00002366  00000+0  19020-3 0  9999
2 58406  43.0110  37.0072 0000440 239.0694 121.0105 15.02527681 58240
STARLINK-30954          
1 58407U 23180F   24339.42736147  .00002994  00000+0  23668-3 0  9994
2 58407  43.0016  36.6256 0001362 270.2155  89.8531 15.02527424 58359
